[{"OBJECT_NAME":"STARLINK-1151","OBJECT_ID":"2020-006AP","EPOCH":"2026-03-09T21:23:38.478048","MEAN_MOTION":15.65402001,"ECCENTRICITY":9.046e-5,"INCLINATION":53.0533,"RA_OF_ASC_NODE":238.7978,"ARG_OF_PERICENTER":30.6278,"MEAN_ANOMALY":329.4789,"EPHEMERIS_TYPE":0,"CLASSIFICATION_TYPE":"U","NORAD_CAT_ID":45081,"ELEMENT_SET_NO":999,"REV_AT_EPOCH":33715,"BSTAR":0.00065977632,"MEAN_MOTION_DOT":0.00067074,"MEAN_MOTION_DDOT":0},{"OBJECT_NAME":"SZ-20 MODULE","OBJECT_ID":"2025-082C","EPOCH":"2026-03-09T16:40:36.867360","MEAN_MOTION":15.64075536,"ECCENTRICITY":0.00095477,"INCLINATION":41.4776,"RA_OF_ASC_NODE":206.9715,"ARG_OF_PERICENTER":333.0027,"MEAN_ANOMALY":27.0316,"EPHEMERIS_TYPE":0,"CLASSIFICATION_TYPE":"U","NORAD_CAT_ID":67481,"ELEMENT_SET_NO":999,"REV_AT_EPOCH":27762,"BSTAR":0.00029135549,"MEAN_MOTION_DOT":0.00028207,"MEAN_MOTION_DDOT":0}]
